TITAN 4B R/B            
1 26474U 00047B   22339.74051569  .00001758  00000+0  15604-3 0  9999
2 26474  67.9925 113.1551 0059294 284.9676  74.4907 14.97432269214163
ENVISAT                 
1 27386U 02009A   22340.46168700  .00000161  00000+0  66623-4 0  9994
2 27386  98.2056 313.6904 0001299  85.0235  81.5256 14.38193101 88259
IDEFIX & ARIANE 42P R/B 
1 27422U 02021B   22339.79983069  .00000188  00000+0  90314-4 0  9999
2 27422  98.4700 280.8025 0013281  91.1142 269.1562 14.29496295 73939
AQUA                    
1 27424U 02022A   22340.12434536  .00000650  00000+0  15326-3 0  9994
2 27424  98.2664 280.5395 0001901  69.1308 301.8660 14.57496917 95232
CZ-4B R/B               
1 27432U 02024C   22340.09748619  .00000028  00000+0  38244-4 0  9995
2 27432  99.0470   7.5169 0050895 151.1865 228.4612 14.14164800 61169
MIDORI II (ADEOS-II)    
1 27597U 02056A   22339.83304118  .00000176  00000+0  89089-4 0  9991
2 27597  98.6268 281.2766 0000545 143.7250 216.3968 14.27693490 40429
H-2A R/B                
1 27601U 02056E   22340.00911505  .00000225  00000+0  95412-4 0  9994
2 27601  98.1817 336.9431 0073080 109.2231 312.1253 14.32160988 43711
CZ-4B R/B               
1 28059U 03049C   22339.79490842  .00000284  00000+0  79898-4 0  9990
2 28059  98.5378 279.4184 0048698 263.9913  95.5731 14.52902485 13698
CZ-2C R/B               
1 28222U 04012C   22339.93043840  .00004141  00000+0  22655-3 0  9995
2 28222  97.7889 324.2765 0043067 182.4520 207.0362 15.14051483 22193
SL-16 R/B               
1 28353U 04021B   22339.80012659 -.00000094  00000+0 -24312-4 0  9998
2 28353  71.0015 208.8971 0003876  17.2874 342.8379 14.14293651954577
CZ-4B R/B               
1 28415U 04035C   22340.06068285  .00003162  00000+0  19867-3 0  9993
2 28415  97.4963  16.6910 0049937 150.2823 210.1259 15.08935039999466
CZ-2C R/B               
1 28480U 04046B   22340.18691060  .00000111  00000+0  56437-4 0  9999
2 28480  98.0853 314.5617 0142820  73.6798 288.0036 14.25887464938928
ARIANE 5 R/B            
1 28499U 04049H   22340.09051314  .00000805  00000+0  10530-3 0  9997
2 28499  98.1155  98.5915 0090013 239.6121 294.3699 14.80656837969517
CZ-2D R/B               
1 28738U 05024B   22340.00800251  .00004144  00000+0  22477-3 0  9993
2 28738  97.3526 342.3552 0009711 309.9523  50.0856 15.15066634957737
SUZAKU (ASTRO-EII)      
1 28773U 05025A   22339.86946816  .00006878  00000+0  27876-3 0  9997
2 28773  31.3793 259.6598 0004926 304.1249  55.8933 15.23237324961161
ALOS (DAICHI)           
1 28931U 06002A   22340.35123117  .00000747  00000+0  15305-3 0  9999
2 28931  97.9613 299.0138 0002068  87.0852 273.0581 14.63468218899564
H-2A R/B                
1 28932U 06002B   22340.40222752  .00002221  00000+0  19904-3 0  9999
2 28932  98.2704  32.1595 0084225 247.2267 112.0036 14.94303784915812
AKARI (ASTRO-F)         
1 28939U 06005A   22339.82581740  .00047842  00000+0  59949-3 0  9999
2 28939  98.1875  76.6504 0052904  20.9982 339.3427 15.57902534919640
CZ-4B R/B               
1 29093U 06015B   22340.40314389  .00046523  00000+0  35267-3 0  9993
2 29093  97.5701 212.8300 0025687 264.6277  95.2055 15.71787092926530
RESURS-DK 1             
1 29228U 06021A   22340.47256208  .00001492  00000+0  11576-3 0  9995
2 29228  69.9363  50.4897 0004166 200.8377 159.2615 15.03699889908260
GENESIS 1               
1 29252U 06029A   22339.82719691  .00005324  00000+0  23113-3 0  9995
2 29252  64.5217 227.6982 0048559 236.7122 122.9347 15.22409685905045
CZ-4B R/B               
1 29507U 06046C   22340.34342485  .00001991  00000+0  15179-3 0  9998
2 29507  97.7128   9.6451 0045436  17.0869 343.1873 15.02418142880729
CZ-2C R/B               
1 31114U 07010B   22339.70467461  .00000051  00000+0  41954-4 0  9994
2 31114  98.2538 141.1243 0060109 157.5561 202.8266 14.19473635810850
COSMO-SKYMED 1          
1 31598U 07023A   22340.35127188  .00000735  00000+0  98856-4 0  9998
2 31598  97.8869 161.5750 0001468  89.7309 270.4087 14.82151986838423
GENESIS 2               
1 31789U 07028A   22340.55331252  .00006701  00000+0  29408-3 0  9991
2 31789  64.4961 268.9380 0059011 289.1101  70.3639 15.21245698852123
COSMOS 2428             
1 31792U 07029A   22339.99837500 -.00000145  00000+0 -52482-4 0  9996
2 31792  70.9488 180.0865 0008346 164.3350 195.8031 14.12595288796151
SL-16 R/B               
1 31793U 07029B   22339.81612056  .00000331  00000+0  19740-3 0  9999
2 31793  70.9747 152.8633 0002410 282.3403 174.0482 14.14498792797093
KORONAS-FOTON           
1 33504U 09003A   22340.15693839  .00002591  00000+0  12483-3 0  9999
2 33504  82.4426  44.5317 0018877  39.2425 321.0172 15.18140973764139
CZ-2C R/B               
1 37731U 11030B   22339.85819094  .00000817  00000+0  12473-3 0  9994
2 37731  97.6910 317.8122 0057321 252.8427 166.4209 14.75317128614320
H-2A R/B                
1 38341U 12025E   22340.10598844  .00001250  00000+0  14992-3 0  9994
2 38341  98.4803 206.6064 0053512 213.4945 146.2881 14.85118668571204
CUSAT 2 & FALCON 9 R/B  
1 39271U 13055G   22340.05631206  .00024910  00000+0  51089-3 0  9991
2 39271  80.9552   5.1644 0495286 306.5037  49.1492 14.70990928481923
SHIJIAN-16 (SJ-16)      
1 39358U 13057A   22340.35239089  .00001079  00000+0  12498-3 0  9997
2 39358  74.9747 265.8577 0017357 109.1870 251.1207 14.86429703494534
CZ-2C R/B               
1 39364U 13059B   22339.85292384  .00010724  00000+0  31359-3 0  9990
2 39364  97.1377  27.4666 0041488  77.7160 282.8725 15.34566853506466
SL-4 R/B                
1 39679U 14021B   22339.80487811  .00003314  00000+0  16479-3 0  9998
2 39679  51.6138 237.2922 0161487 194.4582 165.1740 15.09946163474998
ALOS-2                  
1 39766U 14029A   22340.53049158 -.00000027  00000+0  32562-5 0  9995
2 39766  97.9224  75.1959 0001343  94.2950 265.8464 14.79471132461074
CZ-2C R/B               
1 40306U 14071B   22340.40439534  .00124032  00000+0  49464-3 0  9990
2 40306  97.4254 324.8445 0010013  84.2997 275.9415 15.86204700453929
SL-27 R/B               
1 40354U 14084B   22340.02096705  .00009427  00000+0  18796-3 0  9998
2 40354  74.7358 317.6731 0030492  46.2800 314.0933 15.46408937447496
YAOGAN-29               
1 41038U 15069A   22340.30398088  .00000331  00000+0  49614-4 0  9991
2 41038  98.0616 341.3661 0000352  65.7057 294.4197 14.81003656379720
ASTRO-H (HITOMI)        
1 41337U 16012A   22339.59579618  .00001533  00000+0  11391-3 0  9996
2 41337  31.0060  53.0183 0011916 340.5585  19.4595 14.99895558372837
HXMT (HUIYAN)           
1 42758U 17034A   22340.48807940  .00001831  00000+0  11903-3 0  9991
2 42758  43.0163 121.5186 0011082 284.1006 125.8831 15.11533999302203
CZ-2C R/B               
1 43521U 18054D   22340.20292518  .00004945  00000+0  24445-3 0  9996
2 43521  35.1540  13.3617 0076995 165.4497 194.8456 15.14655097245728
AEOLUS                  
1 43600U 18066A   22340.47003144  .00083974  42812-5  32889-3 0  9994
2 43600  96.7304 343.6101 0013492  96.9593 263.3215 15.86910859248404
SAOCOM 1A               
1 43641U 18076A   22340.35968225  .00000344  00000+0  49702-4 0  9997
2 43641  97.8851 164.6087 0001347  87.3899 272.7478 14.82159553225198
H-2A R/B                
1 43682U 18084L   22339.69847957  .00003649  00000+0  24953-3 0  9995
2 43682  98.8968 328.7932 0055243  61.5607 299.1167 15.05699318225079
SAOCOM 1B               
1 46265U 20059A   22340.52589400  .00000345  00000+0  49943-4 0  9997
2 46265  97.8854 163.8331 0001411  84.2973 275.8412 14.82155583122614
CSS (TIANHE)            
1 48274U 21035A   22340.49630337  .00023002  00000+0  28633-3 0  9993
2 48274  41.4769 249.7369 0005411  28.9279 140.8067 15.59380046 91700
2022-019U               
1 51842U 22019U   22340.65489178  .00007710  00000+0  28297-3 0  9998
2 51842  97.5463  59.6837 0063442 304.6773 192.7827 15.26329396 43024
SZ-13 MODULE            
1 52260U 21092C   22340.38885053  .00059610  00000+0  28449-3 0  9990
2 52260  41.4756 228.4851 0014293 282.6834  77.2415 15.81744637 36489
CZ-2C R/B               
1 52794U 22058K   22340.00219354  .00002587  00000+0  14886-3 0  9990
2 52794  50.1734  80.2745 0100915  58.2615 302.8124 15.12066081 28233
